{"fetched_at":"2026-07-17T06:38:44.772Z","source":"https://celestrak.org/NORAD/elements/gp.php?NAME=WORLDVIEW&FORMAT=JSON","constellation":"worldview","records":[{"OBJECT_NAME":"WORLDVIEW-1 (WV-1)","OBJECT_ID":"2007-041A","EPOCH":"2026-07-16T18:21:07.050816","CLASSIFICATION_TYPE":"U","MEAN_MOTION":15.24568766,"ECCENTRICITY":0.0001676,"INCLINATION":97.3908,"RA_OF_ASC_NODE":317.0939,"ARG_OF_PERICENTER":198.8827,"MEAN_ANOMALY":161.2348,"EPHEMERIS_TYPE":0,"NORAD_CAT_ID":32060,"ELEMENT_SET_NO":999,"REV_AT_EPOCH":4738,"BSTAR":0.00012657,"MEAN_MOTION_DOT":0.00003046,"MEAN_MOTION_DDOT":0},{"OBJECT_NAME":"WORLDVIEW-2 (WV-2)","OBJECT_ID":"2009-055A","EPOCH":"2026-07-16T19:22:37.314912","CLASSIFICATION_TYPE":"U","MEAN_MOTION":14.37907151,"ECCENTRICITY":0.0005376,"INCLINATION":98.4756,"RA_OF_ASC_NODE":270.8537,"ARG_OF_PERICENTER":125.9295,"MEAN_ANOMALY":234.2391,"EPHEMERIS_TYPE":0,"NORAD_CAT_ID":35946,"ELEMENT_SET_NO":999,"REV_AT_EPOCH":87990,"BSTAR":0.000024629,"MEAN_MOTION_DOT":3.1e-7,"MEAN_MOTION_DDOT":0},{"OBJECT_NAME":"WORLDVIEW-3 (WV-3)","OBJECT_ID":"2014-048A","EPOCH":"2026-07-16T19:32:30.660864","CLASSIFICATION_TYPE":"U","MEAN_MOTION":14.85065656,"ECCENTRICITY":0.0001423,"INCLINATION":97.8556,"RA_OF_ASC_NODE":272.2369,"ARG_OF_PERICENTER":153.3342,"MEAN_ANOMALY":206.7946,"EPHEMERIS_TYPE":0,"NORAD_CAT_ID":40115,"ELEMENT_SET_NO":999,"REV_AT_EPOCH":64630,"BSTAR":0.000047888,"MEAN_MOTION_DOT":0.00000356,"MEAN_MOTION_DDOT":0}]}
